     3.04           N: GNSS NAV DATA    G: GPS              RINEX VERSION / TYPE
RTKCONV demo5 b34g                      20230201 104029 UTC PGM / RUN BY / DATE 
format: RTCM 3                                              COMMENT             
log: C:\Users\Salmos\Desktop\test_data\rover_log.rtcm3      COMMENT             
                                                            END OF HEADER       
G04 2022 12 07 10 00 00 -.730617903173D-04  .704858393874D-11  .000000000000D+00
      .830000000000D+02  .119687500000D+02  .485270213452D-08 -.221639451876D+00
      .484287738800D-06  .219947227743D-02  .546500086784D-05  .515372133255D+04
      .295200000000D+06  .745058059692D-08  .122756632026D+01 -.745058059692D-08
      .961616043831D+00  .273718750000D+03 -.311165696093D+01 -.807390773924D-08
      .200722646618D-09  .100000000000D+01  .223900000000D+04  .100000000000D+01
      .200000000000D+01  .000000000000D+00 -.465661287308D-08  .595000000000D+03
      .292720000000D+06  .400000000000D+01
G08 2022 12 07 10 00 00 -.974521972239D-04 -.193267624127D-11  .000000000000D+00
      .800000000000D+02  .654375000000D+02  .472126808834D-08  .162395269283D+00
      .342167913914D-05  .789977540262D-02  .683590769768D-06  .515362705803D+04
      .295200000000D+06  .819563865662D-07 -.197281457409D+01  .465661287308D-07
      .960929076519D+00  .363562500000D+03  .172016287546D+00 -.855357057626D-08
      .184650548579D-09  .100000000000D+01  .223900000000D+04  .100000000000D+01
      .200000000000D+01  .000000000000D+00  .512227416039D-08  .800000000000D+02
      .292720000000D+06  .400000000000D+01
G09 2022 12 07 10 00 00 -.257309526205D-03  .602540239925D-11  .000000000000D+00
      .860000000000D+02  .150625000000D+02  .500806574890D-08  .501287725172D+00
      .683590769768D-06  .264445017092D-02  .559724867344D-05  .515370300674D+04
      .295200000000D+06 -.651925802231D-07  .117222185303D+01 -.186264514923D-08
      .954823434309D+00  .267218750000D+03  .193843494446D+01 -.818676958324D-08
      .280725979078D-09  .100000000000D+01  .223900000000D+04  .100000000000D+01
      .200000000000D+01  .000000000000D+00  .931322574615D-09  .860000000000D+02
      .292720000000D+06  .400000000000D+01
G16 2022 12 07 09 59 44 -.526441261172D-03  .454747350886D-12  .000000000000D+00
      .260000000000D+02  .127437500000D+03  .397766568574D-08  .100896472018D+01
      .685453414917D-05  .131078079576D-01  .100601464510D-04  .515376452827D+04
      .295184000000D+06 -.156462192535D-06 -.290675159051D+01  .800937414169D-07
      .967363812391D+00  .189718750000D+03  .743015935928D+00 -.790604360416D-08
     -.118219210019D-09  .100000000000D+01  .223900000000D+04  .100000000000D+01
      .200000000000D+01  .000000000000D+00 -.102445483208D-07  .260000000000D+02
      .292720000000D+06  .400000000000D+01
G18 2022 12 07 10 00 00 -.498010776937D-04 -.144382283906D-10  .000000000000D+00
      .183000000000D+03 -.141000000000D+03  .419838916547D-08 -.195217406981D+01
     -.740587711334D-05  .296438368969D-02  .516325235367D-05  .515371414375D+04
      .295200000000D+06  .372529029846D-08 -.881749415214D+00 -.260770320892D-07
      .972954470865D+00  .288781250000D+03 -.311837339192D+01 -.802747723379D-08
     -.192508018732D-09  .100000000000D+01  .223900000000D+04  .100000000000D+01
      .200000000000D+01  .000000000000D+00 -.838190317154D-08  .439000000000D+03
      .292720000000D+06  .400000000000D+01
G22 2022 12 07 10 00 00  .379737466574D-03  .784439180279D-11  .000000000000D+00
      .610000000000D+02  .106562500000D+02  .503556689443D-08 -.110290021588D+00
      .603497028351D-06  .135931259720D-01  .541098415852D-05  .515374994469D+04
      .295200000000D+06 -.128522515297D-06  .127604195849D+01  .109896063805D-06
      .961564098536D+00  .278625000000D+03 -.184212720422D+01 -.838034907518D-08
      .157863718515D-09  .100000000000D+01  .223900000000D+04  .100000000000D+01
      .200000000000D+01  .000000000000D+00 -.838190317154D-08  .610000000000D+02
      .292720000000D+06  .400000000000D+01
G26 2022 12 07 10 00 00  .237819738686D-03  .909494701773D-12  .000000000000D+00
      .200000000000D+02  .119187500000D+03  .468733810359D-08  .192193571695D+01
      .618956983089D-05  .757904956117D-02  .106673687696D-04  .515361382294D+04
      .295200000000D+06 -.134110450745D-06 -.305784366129D+01  .484287738800D-07
      .935969110573D+00  .161843750000D+03  .408830081025D+00 -.805069248651D-08
     -.171435712414D-09  .100000000000D+01  .223900000000D+04  .100000000000D+01
      .200000000000D+01  .000000000000D+00  .698491930962D-08  .200000000000D+02
      .292720000000D+06  .400000000000D+01
G27 2022 12 07 10 00 00  .159594230354D-03 -.101181285572D-10  .000000000000D+00
      .100000000000D+02  .687187500000D+02  .455626121514D-08  .150577108987D+00
      .362284481525D-05  .108732749941D-01  .646337866783D-06  .515366310883D+04
      .295200000000D+06  .130385160446D-07 -.195090549308D+01  .154599547386D-06
      .969738369816D+00  .372187500000D+03  .684737519186D+00 -.854428447517D-08
      .177864551630D-09  .100000000000D+01  .223900000000D+04  .100000000000D+01
      .200000000000D+01  .000000000000D+00  .139698386192D-08  .100000000000D+02
      .292720000000D+06  .400000000000D+01
G31 2022 12 07 10 00 00 -.202517025173D-03 -.113686837722D-11  .000000000000D+00
      .860000000000D+02 -.110312500000D+02  .468126642211D-08  .300089865195D+01
     -.700354576111D-06  .107613576110D-01  .862404704094D-05  .515362124443D+04
      .295200000000D+06 -.651925802231D-07  .226360012904D+01 -.126659870148D-06
      .954485823537D+00  .210781250000D+03  .476986231820D+00 -.779139597149D-08
     -.679671168175D-09  .100000000000D+01  .223900000000D+04  .100000000000D+01
      .200000000000D+01  .000000000000D+00 -.135041773319D-07  .860000000000D+02
      .292720000000D+06  .400000000000D+01
